ONEWEB-0045             
1 45151U 20008W   25017.55006373 -.00000439  00000+0 -12740-2 0  9993
2 45151  87.8908 123.8082 0001613 110.2545 249.8757 13.11416454242821
ONEWEB-0047             
1 45152U 20008X   25017.58328447 -.00000513  00000+0 -15049-2 0  9994
2 45152  87.8914 138.9982 0001537 105.9473 254.1824 13.10370635240675
ONEWEB-0048             
1 45153U 20008Y   25017.57829325 -.00000381  00000+0 -11274-2 0  9994
2 45153  87.8915 139.0196 0001596 103.7258 256.4047 13.10369997240286
ONEWEB-0049             
1 45154U 20008Z   25017.57995622 -.00000455  00000+0 -13394-2 0  9996
2 45154  87.8920 139.0066 0001739  89.1973 270.9353 13.10370583240508
ONEWEB-0051             
1 45155U 20008AA  25017.54837280 -.00000449  00000+0 -13019-2 0  9996
2 45155  87.8909 123.8514 0001782 112.0048 248.1269 13.11416772243500
ONEWEB-0052             
1 45156U 20008AB  25017.57663620 -.00000292  00000+0 -87180-3 0  9992
2 45156  87.8912 138.9628 0001618  85.4775 274.6537 13.10369972240413
ONEWEB-0053             
1 45157U 20008AC  25017.55839017  .00000614  00000+0  17224-2 0  9993
2 45157  87.8914 139.0236 0001229 112.8695 247.2562 13.10370628240387
ONEWEB-0054             
1 45158U 20008AD  25017.59322423 -.00000529  00000+0 -15518-2 0  9997
2 45158  87.8915 138.9942 0001651 104.0538 256.0772 13.10372857240500
